ONEWEB-0020             
1 45133U 20008C   24016.58204072 -.00000155  00000+0 -48010-3 0  9995
2 45133  87.8898 211.5698 0001565  82.3851 277.7454 13.10376186192758
ONEWEB-0021             
1 45134U 20008D   24016.59669272  .00000558  00000+0  15611-2 0  9999
2 45134  87.8902 211.5747 0001470  89.1473 270.9823 13.10375902193065
ONEWEB-0022             
1 45135U 20008E   24016.54406419  .00000092  00000+0  22664-3 0  9997
2 45135  87.8897 211.6034 0001710  76.5465 283.5853 13.10390595192750
ONEWEB-0023             
1 45136U 20008F   24016.60968553  .00000838  00000+0  23648-2 0  9997
2 45136  87.8895 211.5639 0000965  82.5226 277.6011 13.10367656192495
ONEWEB-0024             
1 45137U 20008G   24016.58043396 -.00000098  00000+0 -31743-3 0  9990
2 45137  87.8893 211.5737 0001588  92.2570 267.8739 13.10375591192658
ONEWEB-0025             
1 45138U 20008H   24016.59832066  .00000662  00000+0  18599-2 0  9990
2 45138  87.8890 211.5692 0001386  97.2265 262.9020 13.10375132192984
ONEWEB-0026             
1 45139U 20008J   24016.55652919 -.00113089  00000+0 -32423+0 0  9993
2 45139  87.8942 196.4735 0001310  72.2518 287.8752 13.11164299195424
ONEWEB-0028             
1 45140U 20008K   24016.51199089 -.00000273  00000+0 -80696-3 0  9994
2 45140  87.8959 196.5313 0001273 116.8347 243.2911 13.11414415192934
